*******************************************************************************
Ephemeris / WWW_USER Wed Mar 14 15:42:06 2018 Pasadena, USA      / Horizons    
*******************************************************************************
Target body name: Ganymede (503)                  {source: jup310}
Center body name: Solar System Barycenter (0)     {source: DE431mx}
Center-site name: BODY CENTER
*******************************************************************************
Start time      : A.D. 2000-Jan-01 00:00:00.0000 TDB
Stop  time      : A.D. 2001-Jan-01 00:00:00.0000 TDB
Step-size       : 7200 minutes
*******************************************************************************
Center geodetic : 0.00000000,0.00000000,0.0000000 {E-lon(deg),Lat(deg),Alt(km)}
Center cylindric: 0.00000000,0.00000000,0.0000000 {E-lon(deg),Dxy(km),Dz(km)}
Center radii    : (undefined)                                                  
Output units    : AU-D                                                         
Output type     : GEOMETRIC cartesian states
Output format   : 2 (position and velocity)
Reference frame : ICRF/J2000.0                                                 
Coordinate systm: Ecliptic and Mean Equinox of Reference Epoch                 
*******************************************************************************
JDTDB
   X     Y     Z
   VX    VY    VZ
*******************************************************************************
$$SOE
2451544.500000000 = A.D. 2000-Jan-01 00:00:00.0000 TDB 
   3.989397879247163E+00  2.930745369069944E+00 -1.017617975834411E-01
  -2.953446222043177E-03  3.708755791848735E-04 -1.312548305066262E-04
2451549.500000000 = A.D. 2000-Jan-06 00:00:00.0000 TDB 
   3.973838782039294E+00  2.971814599979404E+00 -1.009679763485467E-01
  -1.087040855740284E-02  6.787097300196266E-03  2.064515818406757E-05
2451554.500000000 = A.D. 2000-Jan-11 00:00:00.0000 TDB 
   3.956891312212097E+00  2.993937840302648E+00 -1.008753786224097E-01
  -2.308628269217913E-03  1.219887636458275E-02  3.198816157874654E-04
2451559.500000000 = A.D. 2000-Jan-16 00:00:00.0000 TDB 
   3.922222925769032E+00  3.022912460458884E+00 -1.007122107714209E-01
   8.330667795347091E-05  2.255685350219338E-03 -1.821309722042470E-05
2451564.500000000 = A.D. 2000-Jan-21 00:00:00.0000 TDB 
   3.899525194725096E+00  3.066032400950057E+00 -9.987598079197735E-02
  -1.011430977358946E-02  3.044525090343167E-03 -1.001457409269196E-04
2451569.500000000 = A.D. 2000-Jan-26 00:00:00.0000 TDB 
   3.886344796687064E+00  3.092890088671146E+00 -9.951945614262372E-02
  -6.198743287985546E-03  1.238242481089137E-02  2.924246719466004E-04
2451574.500000000 = A.D. 2000-Jan-31 00:00:00.0000 TDB 
   3.854567701240351E+00  3.115376335918999E+00 -9.951754507922334E-02
   1.415508720058752E-03  5.599195638885814E-03  1.298021782192584E-04
2451579.500000000 = A.D. 2000-Feb-05 00:00:00.0000 TDB 
   3.824406135414012E+00  3.156411810888965E+00 -9.879544230186593E-02
  -7.445262978074358E-03  4.570950520947852E-04 -1.567072931651118E-04
2451584.500000000 = A.D. 2000-Feb-10 00:00:00.0000 TDB 
   3.811195009935222E+00  3.189597685449631E+00 -9.815829046480898E-02
  -9.580466067895274E-03  1.037309652701941E-02  1.894953977647127E-04
2451589.500000000 = A.D. 2000-Feb-15 00:00:00.0000 TDB 
   3.785071288413338E+00  3.208692296435195E+00 -9.817183966076243E-02
   5.149710972975265E-04  9.167795805711859E-03  2.611904765565330E-04
2451594.500000000 = A.D. 2000-Feb-20 00:00:00.0000 TDB 
   3.749535804868288E+00  3.244047151387034E+00 -9.767344453617270E-02
  -3.864576432676581E-03 -1.000920951260571E-04 -1.278456814829455E-04
2451599.500000000 = A.D. 2000-Feb-25 00:00:00.0000 TDB 
   3.732266204482949E+00  3.282689293931864E+00 -9.683288184630150E-02
  -1.129091873577076E-02  6.857478322298282E-03  4.954441478737990E-05
2451604.500000000 = A.D. 2000-Mar-01 00:00:00.0000 TDB 
   3.712281591996289E+00  3.302502093782907E+00 -9.670409862897088E-02
  -2.357551249092490E-03  1.163743403303751E-02  3.298249505882117E-04
2451609.500000000 = A.D. 2000-Mar-06 00:00:00.0000 TDB 
   3.675136972365515E+00  3.330385871026551E+00 -9.645338141463049E-02
  -6.822430320522976E-04  1.536647436866591E-03 -2.215744281373892E-05
2451614.500000000 = A.D. 2000-Mar-11 00:00:00.0000 TDB 
   3.650982693565697E+00  3.371479925382690E+00 -9.555219265700082E-02
  -1.078808671026664E-02  3.052589628615672E-03 -7.629542060618725E-05
2451619.500000000 = A.D. 2000-Mar-16 00:00:00.0000 TDB 
   3.635178341869388E+00  3.395639547322435E+00 -9.516849761142342E-02
  -6.209300831045123E-03  1.207676044717467E-02  3.123197821567961E-04
2451624.500000000 = A.D. 2000-Mar-21 00:00:00.0000 TDB 
   3.600538581075850E+00  3.416736711303292E+00 -9.509387820340852E-02
   9.071876852620320E-04  4.755367514871768E-03  1.242889518238525E-04
2451629.500000000 = A.D. 2000-Mar-26 00:00:00.0000 TDB 
   3.568877055550678E+00  3.456187486666582E+00 -9.429059506417603E-02
  -8.297390362620064E-03  2.606393690662309E-04 -1.423166464772454E-04
2451634.500000000 = A.D. 2000-Mar-31 00:00:00.0000 TDB 
   3.553583353541380E+00  3.486554882686872E+00 -9.362408763233764E-02
  -9.707531581594122E-03  1.029331514554997E-02  2.164595067086171E-04
2451639.500000000 = A.D. 2000-Apr-05 00:00:00.0000 TDB 
   3.524429282188117E+00  3.503761337682400E+00 -9.358477608851869E-02
   2.834376447996914E-04  8.361355370552347E-03  2.602900468749010E-04
2451644.500000000 = A.D. 2000-Apr-10 00:00:00.0000 TDB 
   3.487086039387585E+00  3.537832472892176E+00 -9.299725437303026E-02
  -4.749560197056812E-03 -5.753338438573563E-04 -1.240101956703550E-04
2451649.500000000 = A.D. 2000-Apr-15 00:00:00.0000 TDB 
   3.468229034522695E+00  3.573830483270320E+00 -9.211491834040811E-02
  -1.164619550733866E-02  6.890946533470812E-03  7.813531848920823E-05
2451654.500000000 = A.D. 2000-Apr-20 00:00:00.0000 TDB 
   3.445340851283956E+00  3.591214207175851E+00 -9.195139449558673E-02
  -2.387823995680004E-03  1.101164879303270E-02  3.379310513722027E-04
2451659.500000000 = A.D. 2000-Apr-25 00:00:00.0000 TDB 
   3.405945317541035E+00  3.617847881868696E+00 -9.161509592265026E-02
  -1.437487370195584E-03  8.065538346592646E-04 -2.615469227867942E-05
2451664.500000000 = A.D. 2000-Apr-30 00:00:00.0000 TDB 
   3.380493436918980E+00  3.656689605812412E+00 -9.065415910201063E-02
  -1.140051227896482E-02  3.042928689269695E-03 -5.218660202334364E-05
2451669.500000000 = A.D. 2000-May-05 00:00:00.0000 TDB 
   3.362178341714005E+00  3.678009951640594E+00 -9.024608005282933E-02
  -6.179845196443666E-03  1.170516440415977E-02  3.304926057255028E-04
2451674.500000000 = A.D. 2000-May-10 00:00:00.0000 TDB 
   3.324888554327254E+00  3.697596134472929E+00 -9.009985161648214E-02
   4.004123430298763E-04  3.884712350370379E-03  1.180105636657264E-04
2451679.500000000 = A.D. 2000-May-15 00:00:00.0000 TDB 
   3.291924479685144E+00  3.735245496357939E+00 -8.922015686129703E-02
  -9.100741886768191E-03  5.926436361863993E-05 -1.274179600642994E-04
2451684.500000000 = A.D. 2000-May-20 00:00:00.0000 TDB 
   3.274661049310190E+00  3.762622761228888E+00 -8.852847621113119E-02
  -9.776289555532060E-03  1.015854694408365E-02  2.422241894573290E-04
2451689.500000000 = A.D. 2000-May-25 00:00:00.0000 TDB 
   3.242659921498283E+00  3.777841070324230E+00 -8.843724869538742E-02
   5.629306854225111E-05  7.508896246950682E-03  2.579062458767148E-04
2451694.500000000 = A.D. 2000-May-30 00:00:00.0000 TDB 
   3.203736157009634E+00  3.810439861450156E+00 -8.776436787504846E-02
  -5.603126632431601E-03 -1.050382216725562E-03 -1.197229269435480E-04
2451699.500000000 = A.D. 2000-Jun-04 00:00:00.0000 TDB 
   3.183424468975296E+00  3.843596426206313E+00 -8.684546283982848E-02
  -1.193438952098385E-02  6.887821727927331E-03  1.062141865344232E-04
2451704.500000000 = A.D. 2000-Jun-09 00:00:00.0000 TDB 
   3.157783055794804E+00  3.858450328183749E+00 -8.664882999870473E-02
  -2.398848726555689E-03  1.032570047922117E-02  3.441346060612801E-04
2451709.500000000 = A.D. 2000-Jun-14 00:00:00.0000 TDB 
   3.116375631304619E+00  3.883685713293571E+00 -8.622944855114602E-02
  -2.178150096771707E-03  7.093026324006641E-05 -3.014114075116324E-05
2451714.500000000 = A.D. 2000-Jun-19 00:00:00.0000 TDB 
   3.089792384480320E+00  3.920065181113472E+00 -8.521439357455533E-02
  -1.194793290197183E-02  3.015521687864666E-03 -2.799765379659793E-05
2451719.500000000 = A.D. 2000-Jun-24 00:00:00.0000 TDB 
   3.069094629153151E+00  3.938425631096647E+00 -8.478482779931526E-02
  -6.110500623089011E-03  1.127066149398587E-02  3.468142053732219E-04
2451724.500000000 = A.D. 2000-Jun-29 00:00:00.0000 TDB 
   3.029382816521927E+00  3.956391895674564E+00 -8.456848375105074E-02
  -1.021081670281192E-04  2.993093384562743E-03  1.110081632050270E-04
2451729.500000000 = A.D. 2000-Jul-04 00:00:00.0000 TDB 
   2.995320549366678E+00  3.992036258840353E+00 -8.361769514605606E-02
  -9.850637902614586E-03 -1.447570462985217E-04 -1.120575553639064E-04
2451734.500000000 = A.D. 2000-Jul-09 00:00:00.0000 TDB 
   2.976212060991159E+00  4.016273954041865E+00 -8.290514473434493E-02
  -9.786643683890255E-03  9.970274768021635E-03  2.666150737167414E-04
2451739.500000000 = A.D. 2000-Jul-14 00:00:00.0000 TDB 
   2.941563387594746E+00  4.029419558622513E+00 -8.276321151047618E-02
  -1.652477833217851E-04  6.616103215186141E-03  2.540327978600067E-04
2451744.500000000 = A.D. 2000-Jul-19 00:00:00.0000 TDB 
   2.901295302490434E+00  4.060369235637819E+00 -8.200927233808156E-02
  -6.419726383132763E-03 -1.521325339681136E-03 -1.149639159601685E-04
2451749.500000000 = A.D. 2000-Jul-24 00:00:00.0000 TDB 
   2.879669381543451E+00  4.090507786608870E+00 -8.105925525151063E-02
  -1.215428206938171E-02  6.848418854742037E-03  1.335989630345727E-04
